NORAD_CAT_ID,OBJECT_NAME,OBJECT_TYPE,EPOCH,MEAN_MOTION,ECCENTRICITY,INCLINATION,RA_OF_ASC_NODE,ARG_OF_PERICENTER,MEAN_ANOMALY,BSTAR,MEAN_MOTION_DOT,MEAN_MOTION_DDOT,TLE_LINE0,TLE_LINE1,TLE_LINE2,SEMIMAJOR_AXIS,PERIOD,APOGEE,PERIGEE,DECAYED
55421.0,STARLINK-5598,PAYLOAD,2024-05-30 14:11:13,14.98334344,0.0002837,70.0008,278.5282,266.8419,93.2416,-9.4255e-06,-2.05e-06,0.0,0 STARLINK-5598,1 55421U 23014AG  24151.59112809 -.00000205  00000-0 -94255-5 0  9994,2 55421  70.0008 278.5282 0002837 266.8419  93.2416 14.98334344 74485,6950.179,96.107,574.016,570.073,0.0
55421.0,STARLINK-5598,PAYLOAD,2024-05-30 18:59:37,14.98340397,0.0002737,70.0011,278.0233,266.8756,93.209,6.4106e-05,6.72e-06,0.0,0 STARLINK-5598,1 55421U 23014AG  24151.79140117  .00000672  00000-0  64106-4 0  9996,2 55421  70.0011 278.0233 0002737 266.8756  93.2090 14.98340397 74510,6950.161,96.106,573.928,570.123,0.0
55421.0,STARLINK-5598,PAYLOAD,2024-05-31 12:37:06,14.98328165,0.0002561,70.0016,276.1724,260.1628,99.9242,1.6836e-05,1.08e-06,0.0,0 STARLINK-5598,1 55421U 23014AG  24152.52576773  .00000108  00000-0  16836-4 0  9990,2 55421  70.0016 276.1724 0002561 260.1628  99.9242 14.98328165 74622,6950.199,96.107,573.844,570.284,0.0
55421.0,STARLINK-5598,PAYLOAD,2024-05-31 14:13:14,14.9832792,0.0002612,70.0015,276.0048,252.0656,108.0219,-4.0326e-06,-1.41e-06,0.0,0 STARLINK-5598,1 55421U 23014AG  24152.59252816 -.00000141  00000-0 -40326-5 0  9997,2 55421  70.0015 276.0048 0002612 252.0656 108.0219 14.98327920 74632,6950.199,96.107,573.88,570.249,0.0
55421.0,STARLINK-5598,PAYLOAD,2024-05-31 19:01:38,14.98329863,0.000267,70.0012,275.4981,265.3497,94.7357,-5.9172e-05,-7.99e-06,0.0,0 STARLINK-5598,1 55421U 23014AG  24152.79280914 -.00000799  00000-0 -59172-4 0  9996,2 55421  70.0012 275.4981 0002670 265.3497  94.7357 14.98329863 74667,6950.193,96.107,573.914,570.203,0.0
55421.0,STARLINK-5598,PAYLOAD,2024-06-01 12:39:07,14.98325136,0.0003016,70.0002,273.6463,269.1729,90.9085,-6.2936e-05,-8.44e-06,0.0,0 STARLINK-5598,1 55421U 23014AG  24153.52717280 -.00000844  00000-0 -62936-4 0  9992,2 55421  70.0002 273.6463 0003016 269.1729  90.9085 14.98325136 74773,6950.208,96.107,574.169,569.977,0.0
55421.0,STARLINK-5598,PAYLOAD,2024-06-01 14:15:15,14.98328866,0.0003137,70.0001,273.4777,272.0149,88.0651,-4.5879e-05,-6.4e-06,0.0,0 STARLINK-5598,1 55421U 23014AG  24153.59392978 -.00000640  00000-0 -45879-4 0  9993,2 55421  70.0001 273.4777 0003137 272.0149  88.0651 14.98328866 74782,6950.196,96.107,574.242,569.881,0.0
55421.0,STARLINK-5598,PAYLOAD,2024-06-02 01:28:11,14.98334634,0.0003109,70.0001,272.2988,273.6153,86.4651,-0.0001189,-1.512e-05,0.0,0 STARLINK-5598,1 55421U 23014AG  24154.06124787 -.00001512  00000-0 -11890-3 0  9991,2 55421  70.0001 272.2988 0003109 273.6153  86.4651 14.98334634 74854,6950.179,96.107,574.204,569.883,0.0
55421.0,STARLINK-5598,PAYLOAD,2024-06-02 14:17:16,14.98328287,0.0002955,70.0,270.9523,264.372,95.7102,1.9742e-05,1.43e-06,0.0,0 STARLINK-5598,1 55421U 23014AG  24154.59532914  .00000143  00000-0  19742-4 0  9996,2 55421  70.0000 270.9523 0002955 264.3720  95.7102 14.98328287 74938,6950.198,96.107,574.117,570.009,0.0
55421.0,STARLINK-5598,PAYLOAD,2024-06-03 01:30:12,14.98330902,0.0003114,69.9998,269.774,269.0389,91.0414,1.6112e-06,-7.4e-07,0.0,0 STARLINK-5598,1 55421U 23014AG  24155.06264830 -.00000074  00000-0  16112-5 0  9991,2 55421  69.9998 269.7740 0003114 269.0389  91.0414 14.98330902 75000,6950.19,96.107,574.219,569.891,0.0
55421.0,STARLINK-5598,PAYLOAD,2024-06-03 14:19:17,14.98333188,0.0003282,69.9992,268.4278,273.6656,86.4127,8.3908e-05,9.08e-06,0.0,0 STARLINK-5598,1 55421U 23014AG  24155.59672504  .00000908  00000-0  83908-4 0  9991,2 55421  69.9992 268.4278 0003282 273.6656  86.4127 14.98333188 75086,6950.183,96.107,574.329,569.767,0.0
55421.0,STARLINK-5598,PAYLOAD,2024-06-04 11:09:02,14.98330976,0.0003121,70.0001,266.2397,272.0416,88.0386,4.6582e-05,4.63e-06,0.0,0 STARLINK-5598,1 55421U 23014AG  24156.46460654  .00000463  00000-0  46582-4 0  9992,2 55421  70.0001 266.2397 0003121 272.0416  88.0386 14.98330976 75219,6950.19,96.107,574.224,569.886,0.0
55421.0,STARLINK-5598,PAYLOAD,2024-06-04 14:21:17,14.98336736,0.0003588,69.9987,265.9024,273.2252,86.8497,6.2976e-05,6.59e-06,0.0,0 STARLINK-5598,1 55421U 23014AG  24156.59812200  .00000659  00000-0  62976-4 0  9996,2 55421  69.9987 265.9024 0003588 273.2252  86.8497 14.98336736 75231,6950.172,96.107,574.531,569.543,0.0
55421.0,STARLINK-5598,PAYLOAD,2024-06-04 23:58:05,14.98338426,0.0003507,69.9985,264.8922,273.4313,86.6445,7.8419e-05,8.43e-06,0.0,0 STARLINK-5598,1 55421U 23014AG  24156.99867851  .00000843  00000-0  78419-4 0  9996,2 55421  69.9985 264.8922 0003507 273.4313  86.6445 14.98338426 75290,6950.167,96.106,574.469,569.594,0.0
55421.0,STARLINK-5598,PAYLOAD,2024-06-05 11:11:04,14.98319089,0.000288,70.0001,263.715,269.1748,90.9081,-0.00015137,-1.898e-05,0.0,0 STARLINK-5598,1 55421U 23014AG  24157.46601934 -.00001898  00000-0 -15137-3 0  9997,2 55421  70.0001 263.7150 0002880 269.1748  90.9081 14.98319089 75366,6950.227,96.108,574.093,570.09,0.0
55421.0,STARLINK-5598,PAYLOAD,2024-06-06 00:00:08,14.98323837,0.0002767,70.0005,262.3682,271.4036,88.6806,-7.8636e-05,-1.031e-05,0.0,0 STARLINK-5598,1 55421U 23014AG  24158.00009667 -.00001031  00000-0 -78636-4 0  9996,2 55421  70.0005 262.3682 0002767 271.4036  88.6806 14.98323837 75449,6950.212,96.107,574.0,570.154,0.0
55421.0,STARLINK-5598,PAYLOAD,2024-06-06 12:49:11,14.98336997,0.0003099,69.9999,261.0221,268.146,91.9344,3.624e-05,3.39e-06,0.0,0 STARLINK-5598,1 55421U 23014AG  24158.53416400  .00000339  00000-0  36240-4 0  9994,2 55421  69.9999 261.0221 0003099 268.1460  91.9344 14.98336997 75520,6950.171,96.107,574.19,569.882,0.0
55421.0,STARLINK-5598,PAYLOAD,2024-06-07 09:38:56,14.98324019,0.0002931,70.0001,258.8342,265.0134,95.069,0.00015939,1.809e-05,0.0,0 STARLINK-5598,1 55421U 23014AG  24159.40204822  .00001809  00000-0  15939-3 0  9998,2 55421  70.0001 258.8342 0002931 265.0134  95.0690 14.98324019 75658,6950.211,96.107,574.113,570.039,0.0
55421.0,STARLINK-5598,PAYLOAD,2024-06-07 16:03:29,14.98328111,0.0003028,69.9997,258.1602,265.7682,94.3131,0.00010482,1.158e-05,0.0,0 STARLINK-5598,1 55421U 23014AG  24159.66908758  .00001158  00000-0  10482-3 0  9990,2 55421  69.9997 258.1602 0003028 265.7682  94.3131 14.98328111 75697,6950.199,96.107,574.168,569.959,0.0
55421.0,STARLINK-5598,PAYLOAD,2024-06-08 12:53:13,14.98341452,0.0003123,69.9993,255.9712,267.8941,92.186,8.6429e-06,1e-07,0.0,0 STARLINK-5598,1 55421U 23014AG  24160.53695941  .00000010  00000-0  86429-5 0  9997,2 55421  69.9993 255.9712 0003123 267.8941  92.1860 14.98341452 75820,6950.157,96.106,574.193,569.852,0.0
55421.0,STARLINK-5598,PAYLOAD,2024-06-09 00:06:10,14.98326107,0.0003064,69.999,254.79,267.8053,92.2756,9.8436e-05,1.082e-05,0.0,0 STARLINK-5598,1 55421U 23014AG  24161.00428294  .00001082  00000-0  98436-4 0  9995,2 55421  69.9990 254.7900 0003064 267.8053  92.2756 14.98326107 75893,6950.205,96.107,574.199,569.94,0.0
55421.0,STARLINK-5598,PAYLOAD,2024-06-09 11:19:07,14.98322999,0.0002662,69.9995,253.6131,266.4437,93.6417,-8.1691e-05,-1.067e-05,0.0,0 STARLINK-5598,1 55421U 23014AG  24161.47161267 -.00001067  00000-0 -81691-4 0  9990,2 55421  69.9995 253.6131 0002662 266.4437  93.6417 14.98322999 75968,6950.215,96.107,573.93,570.229,0.0
55421.0,STARLINK-5598,PAYLOAD,2024-06-09 16:07:31,14.98317537,0.000267,69.9997,253.1079,262.2807,97.8049,-8.583e-05,-1.117e-05,0.0,0 STARLINK-5598,1 55421U 23014AG  24161.67189723 -.00001117  00000-0 -85830-4 0  9994,2 55421  69.9997 253.1079 0002670 262.2807  97.8049 14.98317537 75992,6950.231,96.108,573.952,570.241,0.0
55421.0,STARLINK-5598,PAYLOAD,2024-06-10 12:57:15,14.98339346,0.0003097,70.0001,250.9225,274.4264,85.6541,1.939e-05,1.38e-06,0.0,0 STARLINK-5598,1 55421U 23014AG  24162.53976075  .00000138  00000-0  19390-4 0  9992,2 55421  70.0001 250.9225 0003097 274.4264  85.6541 14.98339346 76125,6950.164,96.106,574.181,569.877,0.0
55421.0,STARLINK-5598,PAYLOAD,2024-06-10 14:33:23,14.98339619,0.0003088,70.0001,250.7541,274.4379,85.6427,2.3425e-05,1.87e-06,0.0,0 STARLINK-5598,1 55421U 23014AG  24162.60652014  .00000187  00000-0  23425-4 0  9992,2 55421  70.0001 250.7541 0003088 274.4379  85.6427 14.98339619 76138,6950.163,96.106,574.174,569.882,0.0
55421.0,STARLINK-5598,PAYLOAD,2024-06-10 22:34:03,14.98337519,0.0002842,70.0008,249.9132,272.2341,87.8492,-7.4233e-05,-9.79e-06,0.0,0 STARLINK-5598,1 55421U 23014AG  24162.94032293 -.00000979  00000-0 -74233-4 0  9994,2 55421  70.0008 249.9132 0002842 272.2341  87.8492 14.98337519 76181,6950.17,96.107,574.01,570.059,0.0
55421.0,STARLINK-5598,PAYLOAD,2024-06-11 04:58:36,14.9833451,0.0002357,70.0008,249.2399,284.141,75.9487,-7.8724e-06,-1.87e-06,0.0,0 STARLINK-5598,1 55421U 23014AG  24163.20736573 -.00000187  00000-0 -78724-5 0  9997,2 55421  70.0008 249.2399 0002357 284.1410  75.9487 14.98334510 76224,6950.179,96.107,573.682,570.406,0.0
55421.0,STARLINK-5598,PAYLOAD,2024-06-11 12:59:16,14.98325747,0.0002911,70.0006,248.3984,274.2903,85.7924,0.00015797,1.792e-05,0.0,0 STARLINK-5598,1 55421U 23014AG  24163.54116488  .00001792  00000-0  15797-3 0  9991,2 55421  70.0006 248.3984 0002911 274.2903  85.7924 14.98325747 76277,6950.206,96.107,574.094,570.048,0.0
55421.0,STARLINK-5598,PAYLOAD,2024-06-12 06:36:46,14.98324884,0.0003162,69.9999,246.5463,272.2502,87.8295,-0.00016542,-2.066e-05,0.0,0 STARLINK-5598,1 55421U 23014AG  24164.27553414 -.00002066  00000-0 -16542-3 0  9992,2 55421  69.9999 246.5463 0003162 272.2502  87.8295 14.98324884 76386,6950.209,96.107,574.271,569.876,0.0
55421.0,STARLINK-5598,PAYLOAD,2024-06-12 13:01:18,14.98325808,0.000317,69.9999,245.8731,270.9003,89.1793,-0.00014393,-1.81e-05,0.0,0 STARLINK-5598,1 55421U 23014AG  24164.54257339 -.00001810  00000-0 -14393-3 0  9997,2 55421  69.9999 245.8731 0003170 270.9003  89.1793 14.98325808 76426,6950.206,96.107,574.274,569.868,0.0
